
# Worst residual: 13.48 km
# MJD 57440.000000 (2016 Feb 22  0:00)
SOLRAD 11A = 1976-023C = NORAD 08748 = WB31C9F = XC83E0D
1 08748U 76023C   16053.49921083  .00000000  00000-0  00000-0 0  7365
2 08748 035.4365 001.7925 0014171 309.4688 143.2827 00.19666487    05

# Worst residual: 3.76 km
# MJD 57441.000000 (2016 Feb 23  0:00)
SOLRAD 11A = 1976-023C = NORAD 08748 = WB31C9F = XC83E0D
1 08748U 76023C   16054.49921083  .00000000  00000-0  00000-0 0  7366
2 08748 035.4397 001.7730 0008608 138.8371 024.6128 00.19601766    00

# Worst residual: 15.34 km
# MJD 57442.000000 (2016 Feb 24  0:00)
SOLRAD 11A = 1976-023C = NORAD 08748 = WB31C9F = XC83E0D
1 08748U 76023C   16055.49921083  .00000000  00000-0  00000-0 0  7367
2 08748 035.4453 001.7597 0017998 024.5265 209.6529 00.19665208    00

# Worst residual: 12.70 km
# MJD 57443.000000 (2016 Feb 25  0:00)
SOLRAD 11A = 1976-023C = NORAD 08748 = WB31C9F = XC83E0D
1 08748U 76023C   16056.49921083  .00000000  00000-0  00000-0 0  7368
2 08748 035.4455 001.7506 0036415 000.9864 304.1680 00.19649050    06

# Worst residual: 6.45 km
# MJD 57444.000000 (2016 Feb 26  0:00)
SOLRAD 11A = 1976-023C = NORAD 08748 = WB31C9F = XC83E0D
1 08748U 76023C   16057.49921083  .00000000  00000-0  00000-0 0  7369
2 08748 035.4453 001.7372 0045510 003.8734 012.0210 00.19626934    09

# Worst residual: 11.96 km
# MJD 57445.000000 (2016 Feb 27  0:00)
SOLRAD 11A = 1976-023C = NORAD 08748 = WB31C9F = XC83E0D
1 08748U 76023C   16058.49921083  .00000000  00000-0  00000-0 0  7360
2 08748 035.4476 001.7252 0030014 004.8336 081.8902 00.19658256    07

# Worst residual: 9.28 km
# MJD 57446.000000 (2016 Feb 28  0:00)
SOLRAD 11A = 1976-023C = NORAD 08748 = WB31C9F = XC83E0D
1 08748U 76023C   16059.49921083  .00000000  00000-0  00000-0 0  7361
2 08748 035.4471 001.7157 0015746 345.9941 171.6449 00.19652845    04

# Worst residual: 4.51 km
# MJD 57447.000000 (2016 Feb 29  0:00)
SOLRAD 11A = 1976-023C = NORAD 08748 = WB31C9F = XC83E0D
1 08748U 76023C   16060.49921083  .00000000  00000-0  00000-0 0  7363
2 08748 035.4379 001.6959 0013706 297.9079 290.4837 00.19624546    00

# Worst residual: 8.81 km
# MJD 57448.000000 (2016 Mar  1  0:00)
SOLRAD 11A = 1976-023C = NORAD 08748 = WB31C9F = XC83E0D
1 08748U 76023C   16061.49921083  .00000000  00000-0  00000-0 0  7364
2 08748 035.4344 001.6617 0015314 355.4168 303.7643 00.19658081    03

# Worst residual: 9.68 km
# MJD 57449.000000 (2016 Mar  2  0:00)
SOLRAD 11A = 1976-023C = NORAD 08748 = WB31C9F = XC83E0D
1 08748U 76023C   16062.49921083  .00000000  00000-0  00000-0 0  7365
2 08748 035.4319 001.6493 0024288 023.3946 346.6727 00.19656056    01

# Worst residual: 6.50 km
# MJD 57450.000000 (2016 Mar  3  0:00)
SOLRAD 11A = 1976-023C = NORAD 08748 = WB31C9F = XC83E0D
1 08748U 76023C   16063.49921083  .00000000  00000-0  00000-0 0  7366
2 08748 035.4337 001.6394 0026577 044.9014 035.9875 00.19646071    07

# Worst residual: 6.09 km
# MJD 57451.000000 (2016 Mar  4  0:00)
SOLRAD 11A = 1976-023C = NORAD 08748 = WB31C9F = XC83E0D
1 08748U 76023C   16064.49921083  .00000000  00000-0  00000-0 0  7367
2 08748 035.4314 001.6346 0022866 051.3382 100.2962 00.19643828    06

# Worst residual: 9.27 km
# MJD 57452.000000 (2016 Mar  5  0:00)
SOLRAD 11A = 1976-023C = NORAD 08748 = WB31C9F = XC83E0D
1 08748U 76023C   16065.49921083  .00000000  00000-0  00000-0 0  7368
2 08748 035.4327 001.6197 0028794 019.3653 203.1446 00.19680112    02

# Worst residual: 12.84 km
# MJD 57453.000000 (2016 Mar  6  0:00)
SOLRAD 11A = 1976-023C = NORAD 08748 = WB31C9F = XC83E0D
1 08748U 76023C   16066.49921083  .00000000  00000-0  00000-0 0  7369
2 08748 035.4337 001.5919 0037838 341.7472 311.6593 00.19628432    09

# Worst residual: 13.33 km
# MJD 57454.000000 (2016 Mar  7  0:00)
SOLRAD 11A = 1976-023C = NORAD 08748 = WB31C9F = XC83E0D
1 08748U 76023C   16067.49921083  .00000000  00000-0  00000-0 0  7360
2 08748 035.4515 001.5541 0032806 323.7722 040.1927 00.19638824    07

# Worst residual: 11.52 km
# MJD 57455.000000 (2016 Mar  8  0:00)
SOLRAD 11A = 1976-023C = NORAD 08748 = WB31C9F = XC83E0D
1 08748U 76023C   16068.49921083  .00000000  00000-0  00000-0 0  7361
2 08748 035.4552 001.5416 0017664 279.8265 155.0968 00.19691408    05

# Worst residual: 6.87 km
# MJD 57456.000000 (2016 Mar  9  0:00)
SOLRAD 11A = 1976-023C = NORAD 08748 = WB31C9F = XC83E0D
1 08748U 76023C   16069.49921083  .00000000  00000-0  00000-0 0  7362
2 08748 035.4545 001.5290 0012180 193.6009 312.2037 00.19638892    06

# Worst residual: 7.17 km
# MJD 57457.000000 (2016 Mar 10  0:00)
SOLRAD 11A = 1976-023C = NORAD 08748 = WB31C9F = XC83E0D
1 08748U 76023C   16070.49921083  .00000000  00000-0  00000-0 0  7364
2 08748 035.4540 001.5147 0010657 175.8100 040.6411 00.19641884    06

# Worst residual: 9.34 km
# MJD 57458.000000 (2016 Mar 11  0:00)
SOLRAD 11A = 1976-023C = NORAD 08748 = WB31C9F = XC83E0D
1 08748U 76023C   16071.49921083  .00000000  00000-0  00000-0 0  7365
2 08748 035.4549 001.4999 0012941 069.5733 217.7741 00.19687635    05

# Worst residual: 10.87 km
# MJD 57459.000000 (2016 Mar 12  0:00)
SOLRAD 11A = 1976-023C = NORAD 08748 = WB31C9F = XC83E0D
1 08748U 76023C   16072.49921083  .00000000  00000-0  00000-0 0  7366
2 08748 035.4517 001.4877 0026829 031.7795 326.4945 00.19649694    01

# Worst residual: 10.77 km
# MJD 57460.000000 (2016 Mar 13  0:00)
SOLRAD 11A = 1976-023C = NORAD 08748 = WB31C9F = XC83E0D
1 08748U 76023C   16073.49921083  .00000000  00000-0  00000-0 0  7367
2 08748 035.4307 001.4483 0034895 016.3440 052.5261 00.19629274    09

# Worst residual: 7.53 km
# MJD 57461.000000 (2016 Mar 14  0:00)
SOLRAD 11A = 1976-023C = NORAD 08748 = WB31C9F = XC83E0D
1 08748U 76023C   16074.49921083  .00000000  00000-0  00000-0 0  7368
2 08748 035.4307 001.4114 0028571 341.4100 158.3242 00.19677543    05

# Worst residual: 5.80 km
# MJD 57462.000000 (2016 Mar 15  0:00)
SOLRAD 11A = 1976-023C = NORAD 08748 = WB31C9F = XC83E0D
1 08748U 76023C   16075.49921083  .00000000  00000-0  00000-0 0  7369
2 08748 035.4284 001.3983 0024942 319.3946 251.2071 00.19657084    03

# Worst residual: 5.17 km
# MJD 57463.000000 (2016 Mar 16  0:00)
SOLRAD 11A = 1976-023C = NORAD 08748 = WB31C9F = XC83E0D
1 08748U 76023C   16076.49921083  .00000000  00000-0  00000-0 0  7360
2 08748 035.4301 001.3916 0030709 315.7737 325.6041 00.19647262    05

# Worst residual: 6.96 km
# MJD 57464.000000 (2016 Mar 17  0:00)
SOLRAD 11A = 1976-023C = NORAD 08748 = WB31C9F = XC83E0D
1 08748U 76023C   16077.49921083  .00000000  00000-0  00000-0 0  7361
2 08748 035.4278 001.3830 0029480 323.8579 028.2802 00.19652254    09

# Worst residual: 9.71 km
# MJD 57465.000000 (2016 Mar 18  0:00)
SOLRAD 11A = 1976-023C = NORAD 08748 = WB31C9F = XC83E0D
1 08748U 76023C   16078.49921083  .00000000  00000-0  00000-0 0  7362
2 08748 035.4299 001.3704 0015079 323.5457 099.5008 00.19672869    06
